CCSDS_OMM_VERS = 2.0
CREATION_DATE  = 
ORIGINATOR     = 

OBJECT_NAME    = AQUA
OBJECT_ID      = 2002-022A
CENTER_NAME    = EARTH
REF_FRAME      = TEME
TIME_SYSTEM    = UTC
MEAN_ELEMENT_THEORY = SGP/SGP4

EPOCH          = 2026-04-01T21:06:16.758432
MEAN_MOTION    = 14.62030529
ECCENTRICITY   = .0001292
INCLINATION    = 98.4214
RA_OF_ASC_NODE = 59.6737
ARG_OF_PERICENTER = 116.5416
MEAN_ANOMALY   = 271.6514

EPHEMERIS_TYPE = 0
CLASSIFICATION_TYPE = U
NORAD_CAT_ID   = 27424
ELEMENT_SET_NO = 999
REV_AT_EPOCH   = 27212
BSTAR          = .24658E-3
MEAN_MOTION_DOT = .1188E-4
MEAN_MOTION_DDOT = 0

CCSDS_OMM_VERS = 2.0
CREATION_DATE  = 
ORIGINATOR     = 

OBJECT_NAME    = CZ-4B R/B
OBJECT_ID      = 2002-024C
CENTER_NAME    = EARTH
REF_FRAME      = TEME
TIME_SYSTEM    = UTC
MEAN_ELEMENT_THEORY = SGP/SGP4

EPOCH          = 2026-04-01T03:22:47.704224
MEAN_MOTION    = 14.14551660
ECCENTRICITY   = .00493763
INCLINATION    = 98.8790
RA_OF_ASC_NODE = 144.4296
ARG_OF_PERICENTER = 320.1745
MEAN_ANOMALY   = 97.7930

EPHEMERIS_TYPE = 0
CLASSIFICATION_TYPE = U
NORAD_CAT_ID   = 27432
ELEMENT_SET_NO = 999
REV_AT_EPOCH   = 23241
BSTAR          = .55316137E-4
MEAN_MOTION_DOT = .63E-6
MEAN_MOTION_DDOT = 0

CCSDS_OMM_VERS = 2.0
CREATION_DATE  = 
ORIGINATOR     = 

OBJECT_NAME    = MIDORI II (ADEOS-II)
OBJECT_ID      = 2002-056A
CENTER_NAME    = EARTH
REF_FRAME      = TEME
TIME_SYSTEM    = UTC
MEAN_ELEMENT_THEORY = SGP/SGP4

EPOCH          = 2026-04-01T15:00:10.003392
MEAN_MOTION    = 14.29302684
ECCENTRICITY   = .0000541
INCLINATION    = 98.7808
RA_OF_ASC_NODE = 50.2669
ARG_OF_PERICENTER = 21.2699
MEAN_ANOMALY   = 338.8505

EPHEMERIS_TYPE = 0
CLASSIFICATION_TYPE = U
NORAD_CAT_ID   = 27597
ELEMENT_SET_NO = 999
REV_AT_EPOCH   = 21357
BSTAR          = .16592E-3
MEAN_MOTION_DOT = .377E-5
MEAN_MOTION_DDOT = 0

CCSDS_OMM_VERS = 2.0
CREATION_DATE  = 
ORIGINATOR     = 

OBJECT_NAME    = H-2A R/B
OBJECT_ID      = 2002-056E
CENTER_NAME    = EARTH
REF_FRAME      = TEME
TIME_SYSTEM    = UTC
MEAN_ELEMENT_THEORY = SGP/SGP4

EPOCH          = 2026-04-01T14:51:27.170208
MEAN_MOTION    = 14.33776523
ECCENTRICITY   = .0071427
INCLINATION    = 98.3243
RA_OF_ASC_NODE = 51.1173
ARG_OF_PERICENTER = 93.1914
MEAN_ANOMALY   = 80.0952

EPHEMERIS_TYPE = 0
CLASSIFICATION_TYPE = U
NORAD_CAT_ID   = 27601
ELEMENT_SET_NO = 999
REV_AT_EPOCH   = 21739
BSTAR          = .14383E-3
MEAN_MOTION_DOT = .37E-5
MEAN_MOTION_DDOT = 0

CCSDS_OMM_VERS = 2.0
CREATION_DATE  = 
ORIGINATOR     = 

OBJECT_NAME    = CZ-4B R/B
OBJECT_ID      = 2003-049C
CENTER_NAME    = EARTH
REF_FRAME      = TEME
TIME_SYSTEM    = UTC
MEAN_ELEMENT_THEORY = SGP/SGP4

EPOCH          = 2026-04-01T16:41:48.189696
MEAN_MOTION    = 14.55041012
ECCENTRICITY   = .0048515
INCLINATION    = 98.6895
RA_OF_ASC_NODE = 87.5067
ARG_OF_PERICENTER = 160.2155
MEAN_ANOMALY   = 200.0937

EPHEMERIS_TYPE = 0
CLASSIFICATION_TYPE = U
NORAD_CAT_ID   = 28059
ELEMENT_SET_NO = 999
REV_AT_EPOCH   = 18994
BSTAR          = .11226E-3
MEAN_MOTION_DOT = .44E-5
MEAN_MOTION_DDOT = 0

CCSDS_OMM_VERS = 2.0
CREATION_DATE  = 
ORIGINATOR     = 

OBJECT_NAME    = CZ-2C R/B
OBJECT_ID      = 2004-012C
CENTER_NAME    = EARTH
REF_FRAME      = TEME
TIME_SYSTEM    = UTC
MEAN_ELEMENT_THEORY = SGP/SGP4

EPOCH          = 2026-04-01T04:01:02.607456
MEAN_MOTION    = 15.67342443
ECCENTRICITY   = .00135417
INCLINATION    = 97.7179
RA_OF_ASC_NODE = 158.6306
ARG_OF_PERICENTER = 220.9226
MEAN_ANOMALY   = 139.1019

EPHEMERIS_TYPE = 0
CLASSIFICATION_TYPE = U
NORAD_CAT_ID   = 28222
ELEMENT_SET_NO = 999
REV_AT_EPOCH   = 20779
BSTAR          = .69485955E-3
MEAN_MOTION_DOT = .75596E-3
MEAN_MOTION_DDOT = 0

CCSDS_OMM_VERS = 2.0
CREATION_DATE  = 
ORIGINATOR     = 

OBJECT_NAME    = SL-16 R/B
OBJECT_ID      = 2004-021B
CENTER_NAME    = EARTH
REF_FRAME      = TEME
TIME_SYSTEM    = UTC
MEAN_ELEMENT_THEORY = SGP/SGP4

EPOCH          = 2026-04-01T12:13:27.622272
MEAN_MOTION    = 14.14597396
ECCENTRICITY   = .0005199
INCLINATION    = 71.0011
RA_OF_ASC_NODE = 184.6051
ARG_OF_PERICENTER = 341.4090
MEAN_ANOMALY   = 18.6841

EPHEMERIS_TYPE = 0
CLASSIFICATION_TYPE = U
NORAD_CAT_ID   = 28353
ELEMENT_SET_NO = 999
REV_AT_EPOCH   = 12606
BSTAR          = .19963E-3
MEAN_MOTION_DOT = .336E-5
MEAN_MOTION_DDOT = 0

CCSDS_OMM_VERS = 2.0
CREATION_DATE  = 
ORIGINATOR     = 

OBJECT_NAME    = CZ-4B R/B
OBJECT_ID      = 2004-035C
CENTER_NAME    = EARTH
REF_FRAME      = TEME
TIME_SYSTEM    = UTC
MEAN_ELEMENT_THEORY = SGP/SGP4

EPOCH          = 2026-04-01T19:27:30.684384
MEAN_MOTION    = 15.29472229
ECCENTRICITY   = .0030166
INCLINATION    = 97.3456
RA_OF_ASC_NODE = 125.7777
ARG_OF_PERICENTER = 244.9278
MEAN_ANOMALY   = 114.8830

EPHEMERIS_TYPE = 0
CLASSIFICATION_TYPE = U
NORAD_CAT_ID   = 28415
ELEMENT_SET_NO = 999
REV_AT_EPOCH   = 18344
BSTAR          = .30312E-3
MEAN_MOTION_DOT = .8704E-4
MEAN_MOTION_DDOT = 0

CCSDS_OMM_VERS = 2.0
CREATION_DATE  = 
ORIGINATOR     = 

OBJECT_NAME    = CZ-2C R/B
OBJECT_ID      = 2004-046B
CENTER_NAME    = EARTH
REF_FRAME      = TEME
TIME_SYSTEM    = UTC
MEAN_ELEMENT_THEORY = SGP/SGP4

EPOCH          = 2026-04-01T11:37:27.014016
MEAN_MOTION    = 14.27000615
ECCENTRICITY   = .0140631
INCLINATION    = 98.1978
RA_OF_ASC_NODE = 5.0480
ARG_OF_PERICENTER = 87.4871
MEAN_ANOMALY   = 274.2402

EPHEMERIS_TYPE = 0
CLASSIFICATION_TYPE = U
NORAD_CAT_ID   = 28480
ELEMENT_SET_NO = 999
REV_AT_EPOCH   = 11175
BSTAR          = .88419E-4
MEAN_MOTION_DOT = .199E-5
MEAN_MOTION_DDOT = 0

CCSDS_OMM_VERS = 2.0
CREATION_DATE  = 
ORIGINATOR     = 

OBJECT_NAME    = ARIANE 5 R/B
OBJECT_ID      = 2004-049H
CENTER_NAME    = EARTH
REF_FRAME      = TEME
TIME_SYSTEM    = UTC
MEAN_ELEMENT_THEORY = SGP/SGP4

EPOCH          = 2026-04-01T17:45:10.151712
MEAN_MOTION    = 14.85309145
ECCENTRICITY   = .0082845
INCLINATION    = 98.2660
RA_OF_ASC_NODE = 261.0652
ARG_OF_PERICENTER = 276.4779
MEAN_ANOMALY   = 82.7007

EPHEMERIS_TYPE = 0
CLASSIFICATION_TYPE = U
NORAD_CAT_ID   = 28499
ELEMENT_SET_NO = 999
REV_AT_EPOCH   = 14921
BSTAR          = .12166E-3
MEAN_MOTION_DOT = .1045E-4
MEAN_MOTION_DDOT = 0

CCSDS_OMM_VERS = 2.0
CREATION_DATE  = 
ORIGINATOR     = 

OBJECT_NAME    = CZ-2D R/B
OBJECT_ID      = 2005-024B
CENTER_NAME    = EARTH
REF_FRAME      = TEME
TIME_SYSTEM    = UTC
MEAN_ELEMENT_THEORY = SGP/SGP4

EPOCH          = 2026-04-01T18:48:44.360064
MEAN_MOTION    = 15.62322761
ECCENTRICITY   = .0001911
INCLINATION    = 97.3569
RA_OF_ASC_NODE = 107.8112
ARG_OF_PERICENTER = 303.4150
MEAN_ANOMALY   = 56.6925

EPHEMERIS_TYPE = 0
CLASSIFICATION_TYPE = U
NORAD_CAT_ID   = 28738
ELEMENT_SET_NO = 999
REV_AT_EPOCH   = 14338
BSTAR          = .55027E-3
MEAN_MOTION_DOT = .48681E-3
MEAN_MOTION_DDOT = 0

CCSDS_OMM_VERS = 2.0
CREATION_DATE  = 
ORIGINATOR     = 

OBJECT_NAME    = ALOS (DAICHI)
OBJECT_ID      = 2006-002A
CENTER_NAME    = EARTH
REF_FRAME      = TEME
TIME_SYSTEM    = UTC
MEAN_ELEMENT_THEORY = SGP/SGP4

EPOCH          = 2026-04-01T13:55:49.321344
MEAN_MOTION    = 14.69880872
ECCENTRICITY   = .0000976
INCLINATION    = 98.1255
RA_OF_ASC_NODE = 47.4277
ARG_OF_PERICENTER = 112.1277
MEAN_ANOMALY   = 248.0033

EPHEMERIS_TYPE = 0
CLASSIFICATION_TYPE = U
NORAD_CAT_ID   = 28931
ELEMENT_SET_NO = 999
REV_AT_EPOCH   = 7684
BSTAR          = .28529E-3
MEAN_MOTION_DOT = .1657E-4
MEAN_MOTION_DDOT = 0

